[
    {
        "Altitude(m)": 617710.6270760893,
        "Argument of Periapsis(deg)": 0.0,
        "Eccentricity": 0.0,
        "Inclination(deg)": 60.0,
        "Latitude(deg)": -41.10262607247149,
        "Longitude(deg)": 94.96666288652763,
        "Mean Anomaly(deg)": -49.09089999999999,
        "RAAN(deg)": 225.0,
        "Satellite Name": "Test1 1009",
        "Satellite Number": 1009,
        "Semi-Major Axis(m)": 6980739.136638005,
        "Time(s)": 0
    },
    {
        "Altitude(m)": 617517.9254784836,
        "Argument of Periapsis(deg)": 0.00010418945913296404,
        "Eccentricity": 0.0,
        "Inclination(deg)": 60.0,
        "Latitude(deg)": -40.63683269590044,
        "Longitude(deg)": 95.46345570498549,
        "Mean Anomaly(deg)": -48.470793854538144,
        "RAAN(deg)": 224.99957995086024,
        "Satellite Name": "Test1 1009",
        "Satellite Number": 1009,
        "Semi-Major Axis(m)": 6980739.136638005,
        "Time(s)": 10
    }
]